$$SOE
2460728.500000000, A.D. 2025-Feb-22 00:00:00.0000, -3.634210565646341E+08, -3.889622460418852E+07, -4.260958223173816E+06,
2460735.500000000, A.D. 2025-Mar-01 00:00:00.0000, -3.618093399702062E+08, -5.077091963259469E+07, -4.971653623341281E+06,
2460742.500000000, A.D. 2025-Mar-08 00:00:00.0000, -3.598375887245924E+08, -6.259513586450411E+07, -5.677401931833420E+06,
2460749.500000000, A.D. 2025-Mar-15 00:00:00.0000, -3.575074595304350E+08, -7.435705425279456E+07, -6.377496431384325E+06,
2460756.500000000, A.D. 2025-Mar-22 00:00:00.0000, -3.548210611477650E+08, -8.604491474194020E+07, -7.071236223182727E+06,
2460763.500000000, A.D. 2025-Mar-29 00:00:00.0000, -3.517809525209476E+08, -9.764703898351625E+07, -7.757927544011965E+06,
2460770.500000000, A.D. 2025-Apr-05 00:00:00.0000, -3.483901380076825E+08, -1.091518519920841E+08, -8.436885149909087E+06,
2460777.500000000, A.D. 2025-Apr-12 00:00:00.0000, -3.446520616362127E+08, -1.205479025474958E+08, -9.107433574896768E+06,
2460784.500000000, A.D. 2025-Apr-19 00:00:00.0000, -3.405706005873362E+08, -1.318238831449634E+08, -9.768908314159743E+06,
2460791.500000000, A.D. 2025-Apr-26 00:00:00.0000, -3.361500576552922E+08, -1.429686496224278E+08, -1.042065696886586E+07,
2460798.500000000, A.D. 2025-May-03 00:00:00.0000, -3.313951526136937E+08, -1.539712403734867E+08, -1.106204035783052E+07,
2460805.500000000, A.D. 2025-May-10 00:00:00.0000, -3.263110125063633E+08, -1.648208950638712E+08, -1.169243359445624E+07,
2460812.500000000, A.D. 2025-May-17 00:00:00.0000, -3.209031608793010E+08, -1.755070728196806E+08, -1.231122713214468E+07,
2460819.500000000, A.D. 2025-May-24 00:00:00.0000, -3.151775058356130E+08, -1.860194698717871E+08, -1.291782779501507E+07,
2460826.500000000, A.D. 2025-May-31 00:00:00.0000, -3.091403265539229E+08, -1.963480362798948E+08, -1.351165980332518E+07,
2460833.500000000, A.D. 2025-Jun-07 00:00:00.0000, -3.027982587319409E+08, -2.064829904713408E+08, -1.409216565502399E+07,
2460840.500000000, A.D. 2025-Jun-14 00:00:00.0000, -2.961582813829760E+08, -2.164148322082028E+08, -1.465880669812581E+07,
2460847.500000000, A.D. 2025-Jun-21 00:00:00.0000, -2.892277038369415E+08, -2.261343572095009E+08, -1.521106377064818E+07,
2460854.500000000, A.D. 2025-Jun-28 00:00:00.0000, -2.820141498917211E+08, -2.356326716258302E+08, -1.574843804900800E+07,
2460861.500000000, A.D. 2025-Jul-05 00:00:00.0000, -2.745255407068853E+08, -2.449012041756012E+08, -1.627045178762043E+07,
2460868.500000000, A.D. 2025-Jul-12 00:00:00.0000, -2.667700777049634E+08, -2.539317167192000E+08, -1.677664890455216E+07,
2460875.500000000, A.D. 2025-Jul-19 00:00:00.0000, -2.587562253649311E+08, -2.627163138252259E+08, -1.726659547655846E+07,
2460882.500000000, A.D. 2025-Jul-26 00:00:00.0000, -2.504926937739970E+08, -2.712474513731581E+08, -1.773988016710620E+07,
2460889.500000000, A.D. 2025-Aug-02 00:00:00.0000, -2.419884209500985E+08, -2.795179441652976E+08, -1.819611459175056E+07,
2460896.500000000, A.D. 2025-Aug-09 00:00:00.0000, -2.332525549890664E+08, -2.875209725621505E+08, -1.863493362447077E+07,
2460903.500000000, A.D. 2025-Aug-16 00:00:00.0000, -2.242944360348023E+08, -2.952500882092361E+08, -1.905599565764256E+07,
2460910.500000000, A.D. 2025-Aug-23 00:00:00.0000, -2.151235778527294E+08, -3.026992188492823E+08, -1.945898284189516E+07,
2460917.500000000, A.D. 2025-Aug-30 00:00:00.0000, -2.057496487479919E+08, -3.098626715215636E+08, -1.984360127871236E+07,
2460924.500000000, A.D. 2025-Sep-06 00:00:00.0000, -1.961824533135886E+08, -3.167351331682606E+08, -2.020958095522264E+07,
2460931.500000000, A.D. 2025-Sep-13 00:00:00.0000, -1.864319167420023E+08, -3.233116711557434E+08, -2.055667547249436E+07,
2460938.500000000, A.D. 2025-Sep-20 00:00:00.0000, -1.765080684873107E+08, -3.295877353870835E+08, -2.088466200415127E+07,
2460945.500000000, A.D. 2025-Sep-27 00:00:00.0000, -1.664210242776842E+08, -3.355591589305720E+08, -2.119334133048630E+07,
2460952.500000000, A.D. 2025-Oct-04 00:00:00.0000, -1.561809685492685E+08, -3.412221566626342E+08, -2.148253772131710E+07,
2460959.500000000, A.D. 2025-Oct-11 00:00:00.0000, -1.457981377242347E+08, -3.465733229072627E+08, -2.175209871274644E+07,
2460966.500000000, A.D. 2025-Oct-18 00:00:00.0000, -1.352828040932018E+08, -3.516096283875964E+08, -2.200189482888944E+07,
2460973.500000000, A.D. 2025-Oct-25 00:00:00.0000, -1.246452602011885E+08, -3.563284165227052E+08, -2.223181926347050E+07,
2460980.500000000, A.D. 2025-Nov-01 00:00:00.0000, -1.138958037322205E+08, -3.607273991013907E+08, -2.244178752698752E+07,
2460987.500000000, A.D. 2025-Nov-08 00:00:00.0000, -1.030447228892873E+08, -3.648046514136531E+08, -2.263173706860806E+07,
2460994.500000000, A.D. 2025-Nov-15 00:00:00.0000, -9.210228214918831E+07, -3.685586069480230E+08, -2.280162689451276E+07,
2461001.500000000, A.D. 2025-Nov-22 00:00:00.0000, -8.107870801255231E+07, -3.719880514843619E+08, -2.295143720498100E+07,
2461008.500000000, A.D. 2025-Nov-29 00:00:00.0000, -6.998417492105001E+07, -3.750921154967224E+08, -2.308116894674121E+07,
2461015.500000000, A.D. 2025-Dec-06 00:00:00.0000, -5.882879363401546E+07, -3.778702650506113E+08, -2.319084308604509E+07,
2461022.500000000, A.D. 2025-Dec-13 00:00:00.0000, -4.762260164137998E+07, -3.803222946123432E+08, -2.328049992085341E+07,
2461029.500000000, A.D. 2025-Dec-20 00:00:00.0000, -3.637555212750660E+07, -3.824483207950837E+08, -2.335019867194119E+07,
2461036.500000000, A.D. 2025-Dec-27 00:00:00.0000, -2.509750256522080E+07, -3.842487744953518E+08, -2.340001704514188E+07,
2461043.500000000, A.D. 2026-Jan-03 00:00:00.0000, -1.379820439999724E+07, -3.857243920759616E+08, -2.343005068325537E+07,
2461050.500000000, A.D. 2026-Jan-10 00:00:00.0000, -2.487293709413273E+06, -3.868762063130808E+08, -2.344041257536480E+07,
2461057.500000000, A.D. 2026-Jan-17 00:00:00.0000, 8.825717403987573E+06, -3.877055372391092E+08, -2.343123245504689E+07,
2461064.500000000, A.D. 2026-Jan-24 00:00:00.0000, 2.013144877528462E+07, -3.882139829003460E+08, -2.340265619576293E+07,
2461071.500000000, A.D. 2026-Jan-31 00:00:00.0000, 3.142065952990612E+07, -3.884034100781443E+08, -2.335484520907542E+07,
2461078.500000000, A.D. 2026-Feb-07 00:00:00.0000, 4.268425489953542E+07, -3.882759450699400E+08, -2.328797585841948E+07,
2461085.500000000, A.D. 2026-Feb-14 00:00:00.0000, 5.391329276665284E+07, -3.878339645809418E+08, -2.320223891472843E+07,
2461092.500000000, A.D. 2026-Feb-21 00:00:00.0000, 6.509899033933291E+07, -3.870800861810501E+08, -2.309783904375157E+07,
2461099.500000000, A.D. 2026-Feb-28 00:00:00.0000, 7.623272988740282E+07, -3.860171572015818E+08, -2.297499413257605E+07,
2461106.500000000, A.D. 2026-Mar-07 00:00:00.0000, 8.730606149928227E+07, -3.846482440461640E+08, -2.283393442712444E+07,
2461113.500000000, A.D. 2026-Mar-14 00:00:00.0000, 9.831070565562117E+07, -3.829766242711062E+08, -2.267490192716014E+07,
2461120.500000000, A.D. 2026-Mar-21 00:00:00.0000, 1.092385574243899E+08, -3.810057785606872E+08, -2.249814996680489E+07,
2461127.500000000, A.D. 2026-Mar-28 00:00:00.0000, 1.200816902893949E+08, -3.787393815910900E+08, -2.230394271329349E+07,
2461134.500000000, A.D. 2026-Apr-04 00:00:00.0000, 1.308323590297643E+08, -3.761812927682284E+08, -2.209255460837823E+07,
2461141.500000000, A.D. 2026-Apr-11 00:00:00.0000, 1.414830019458386E+08, -3.733355472167100E+08, -2.186426980763504E+07,
2461148.500000000, A.D. 2026-Apr-18 00:00:00.0000, 1.520262426122924E+08, -3.702063470419296E+08, -2.161938163340670E+07,
2461155.500000000, A.D. 2026-Apr-25 00:00:00.0000, 1.624548912257532E+08, -3.667980528635597E+08, -2.135819204485901E+07,
2461162.500000000, A.D. 2026-May-02 00:00:00.0000, 1.727619455993919E+08, -3.631151756606531E+08, -2.108101113082314E+07,
2461169.500000000, A.D. 2026-May-09 00:00:00.0000, 1.829405919517453E+08, -3.591623690038847E+08, -2.078815664268547E+07,
2461176.500000000, A.D. 2026-May-16 00:00:00.0000, 1.929842058905906E+08, -3.549444215458981E+08, -2.047995359103188E+07,
2461183.500000000, A.D. 2026-May-23 00:00:00.0000, 2.028863536653673E+08, -3.504662487563883E+08, -2.015673382747737E+07,
2461190.500000000, A.D. 2026-May-30 00:00:00.0000, 2.126407916294059E+08, -3.457328835891585E+08, -1.981883539510335E+07,
2461197.500000000, A.D. 2026-Jun-06 00:00:00.0000, 2.222414636132088E+08, -3.407494693576890E+08, -1.946660188612953E+07,
2461204.500000000, A.D. 2026-Jun-13 00:00:00.0000, 2.316824998942642E+08, -3.355212546215571E+08, -1.910038212709692E+07,
2461211.500000000, A.D. 2026-Jun-20 00:00:00.0000, 2.409582172824304E+08, -3.300535871600161E+08, -1.872052990679464E+07,
2461218.500000000, A.D. 2026-Jun-27 00:00:00.0000, 2.500631186413364E+08, -3.243519073747982E+08, -1.832740361918525E+07,
2461225.500000000, A.D. 2026-Jul-04 00:00:00.0000, 2.589918918632993E+08, -3.184217418978221E+08, -1.792136588485457E+07,
2461232.500000000, A.D. 2026-Jul-11 00:00:00.0000, 2.677394085684854E+08, -3.122686975354635E+08, -1.750278318520431E+07,
2461239.500000000, A.D. 2026-Jul-18 00:00:00.0000, 2.763007226368720E+08, -3.058984555226951E+08, -1.707202551586223E+07,
2461246.500000000, A.D. 2026-Jul-25 00:00:00.0000, 2.846710686119254E+08, -2.993167660824913E+08, -1.662946606130274E+07,
2461253.500000000, A.D. 2026-Aug-01 00:00:00.0000, 2.928458600372293E+08, -2.925294433351396E+08, -1.617548089891954E+07,
2461260.500000000, A.D. 2026-Aug-08 00:00:00.0000, 3.008206879538962E+08, -2.855423605881573E+08, -1.571044875499643E+07,
2461267.500000000, A.D. 2026-Aug-15 00:00:00.0000, 3.085913199879068E+08, -2.783614455512082E+08, -1.523475081350122E+07,
2461274.500000000, A.D. 2026-Aug-22 00:00:00.0000, 3.161536992806407E+08, -2.709926742512568E+08, -1.474877040763694E+07,
2461281.500000000, A.D. 2026-Aug-29 00:00:00.0000, 3.235039409853342E+08, -2.634420650174855E+08, -1.425289249596213E+07,
2461288.500000000, A.D. 2026-Sep-05 00:00:00.0000, 3.306383284721742E+08, -2.557156753983682E+08, -1.374750335284975E+07,
$$EOE